[{"OBJECT_NAME":"IRIDIUM 156","OBJECT_ID":"2018-061H","EPOCH":"2026-03-09T13:23:10.368096","MEAN_MOTION":14.34217428,"ECCENTRICITY":0.0001926,"INCLINATION":86.3916,"RA_OF_ASC_NODE":98.4058,"ARG_OF_PERICENTER":95.842,"MEAN_ANOMALY":264.2995,"EPHEMERIS_TYPE":0,"CLASSIFICATION_TYPE":"U","NORAD_CAT_ID":43576,"ELEMENT_SET_NO":999,"REV_AT_EPOCH":39909,"BSTAR":-1.5896e-5,"MEAN_MOTION_DOT":-2.5e-7,"MEAN_MOTION_DDOT":0},{"OBJECT_NAME":"FENGYUN 1C DEB","OBJECT_ID":"1999-025AWJ","EPOCH":"2026-03-09T12:47:20.707584","MEAN_MOTION":14.35151305,"ECCENTRICITY":0.00434187,"INCLINATION":99.0605,"RA_OF_ASC_NODE":272.6118,"ARG_OF_PERICENTER":81.7922,"MEAN_ANOMALY":278.8183,"EPHEMERIS_TYPE":0,"CLASSIFICATION_TYPE":"U","NORAD_CAT_ID":30848,"ELEMENT_SET_NO":999,"REV_AT_EPOCH":98551,"BSTAR":0.0011747129,"MEAN_MOTION_DOT":3.345e-5,"MEAN_MOTION_DDOT":0}]
